{"type": "FeatureCollection", "features": [ {"type": "Feature", "properties": {"norad_id": 38824, "name": "FENGYUN 1C DEB", "group": "fengyun-1c-debris", "lat": 33.3212943917245, "lon": -63.990971941431155, "alt_km": 834.9533555859553, "timestamp": "2025-12-02T15:49:07.480515+00:00", "meta": {"OBJECT_NAME": "FENGYUN 1C DEB", "OBJECT_ID": "1999-025EVQ", "EPOCH": "2025-11-20T14:24:21.461760", "MEAN_MOTION": 14.13875773, "ECCENTRICITY": 0.00960414, "INCLINATION": 99.2955, "RA_OF_ASC_NODE": 97.2934, "ARG_OF_PERICENTER": 263.2679, "MEAN_ANOMALY": 95.7556, "EPHEMERIS_TYPE": 0, "CLASSIFICATION_TYPE": "U", "NORAD_CAT_ID": 38824, "ELEMENT_SET_NO": 999, "REV_AT_EPOCH": 68824, "BSTAR": 0.0027703315, "MEAN_MOTION_DOT": 5.443e-05, "MEAN_MOTION_DDOT": 0}, "tle": {"line1": "1 38824U 99025EVQ 25324.60024840  .00005443  00000+0  27703-2 0  9996", "line2": "2 38824  99.2955  97.2934 0096041 263.2679  95.7556 14.13875773688246"}}, "geometry": {"type": "Point", "coordinates": [-63.990971941431155, 33.3212943917245]}}, {"type": "Feature", "properties": {"norad_id": 38827, "name": "FENGYUN 1C DEB", "group": "fengyun-1c-debris", "lat": 75.75983385995015, "lon": -144.5492589874257, "alt_km": 847.5457741725104, "timestamp": "2025-12-02T15:49:07.480525+00:00", "meta": {"OBJECT_NAME": "FENGYUN 1C DEB", "OBJECT_ID": "1999-025EVT", "EPOCH": "2025-11-30T19:46:34.848480", "MEAN_MOTION": 14.3272809, "ECCENTRICITY": 0.02172188, "INCLINATION": 98.3884, "RA_OF_ASC_NODE": 358.1224, "ARG_OF_PERICENTER": 348.2391, "MEAN_ANOMALY": 11.3765, "EPHEMERIS_TYPE": 0, "CLASSIFICATION_TYPE": "U", "NORAD_CAT_ID": 38827, "ELEMENT_SET_NO": 999, "REV_AT_EPOCH": 60889, "BSTAR": 0.0010294413, "MEAN_MOTION_DOT": 3.594e-05, "MEAN_MOTION_DDOT": 0}, "tle": {"line1": "1 38827U 99025EVT 25334.82401445  .00003594  00000+0  10294-2 0  9996", "line2": "2 38827  98.3884 358.1224 0217218 348.2391  11.3765 14.32728090608896"}}, "geometry": {"type": "Point", "coordinates": [-144.5492589874257, 75.75983385995015]}}, {"type": "Feature", "properties": {"norad_id": 38829, "name": "FENGYUN 1C DEB", "group": "fengyun-1c-debris", "lat": 5.127529734515081, "lon": 173.71426899264188, "alt_km": 877.4580957742692, "timestamp": "2025-12-02T15:49:07.480536+00:00", "meta": {"OBJECT_NAME": "FENGYUN 1C DEB", "OBJECT_ID": "1999-025EVV", "EPOCH": "2025-11-28T12:09:37.579680", "MEAN_MOTION": 14.09173473, "ECCENTRICITY": 0.00415826, "INCLINATION": 98.7503, "RA_OF_ASC_NODE": 348.8898, "ARG_OF_PERICENTER": 70.4663, "MEAN_ANOMALY": 290.0991, "EPHEMERIS_TYPE": 0, "CLASSIFICATION_TYPE": "U", "NORAD_CAT_ID": 38829, "ELEMENT_SET_NO": 999, "REV_AT_EPOCH": 63932, "BSTAR": 0.00056587384, "MEAN_MOTION_DOT": 9.49e-06, "MEAN_MOTION_DDOT": 0}, "tle": {"line1": "1 38829U 99025EVV 25332.50668495  .00000949  00000+0  56587-3 0  9998", "line2": "2 38829  98.7503 348.8898 0041582  70.4663 290.0991 14.09173473639320"}}, "geometry": {"type": "Point", "coordinates": [173.71426899264188, 5.127529734515081]}}, {"type": "Feature", "properties": {"norad_id": 38832, "name": "FENGYUN 1C DEB", "group": "fengyun-1c-debris", "lat": 61.21439384005239, "lon": 3.535219476729485, "alt_km": 811.56842361695, "timestamp": "2025-12-02T15:49:07.480546+00:00", "meta": {"OBJECT_NAME": "FENGYUN 1C DEB", "OBJECT_ID": "1999-025EVY", "EPOCH": "2025-12-01T22:25:38.493120", "MEAN_MOTION": 14.04437994, "ECCENTRICITY": 0.00847426, "INCLINATION": 99.2676, "RA_OF_ASC_NODE": 20.0842, "ARG_OF_PERICENTER": 72.9127, "MEAN_ANOMALY": 288.13, "EPHEMERIS_TYPE": 0, "CLASSIFICATION_TYPE": "U", "NORAD_CAT_ID": 38832, "ELEMENT_SET_NO": 999, "REV_AT_EPOCH": 63606, "BSTAR": 0.0011615033, "MEAN_MOTION_DOT": 1.866e-05, "MEAN_MOTION_DDOT": 0}, "tle": {"line1": "1 38832U 99025EVY 25335.93447330  .00001866  00000+0  11615-2 0  9996", "line2": "2 38832  99.2676  20.0842 0084742  72.9127 288.1300 14.04437994636062"}}, "geometry": {"type": "Point", "coordinates": [3.535219476729485, 61.21439384005239]}}, {"type": "Feature", "properties": {"norad_id": 39536, "name": "FENGYUN 1C DEB", "group": "fengyun-1c-debris", "lat": -46.41944216534974, "lon": 26.89143575987657, "alt_km": 852.1159782832747, "timestamp": "2025-12-02T15:49:07.480557+00:00", "meta": {"OBJECT_NAME": "FENGYUN 1C DEB", "OBJECT_ID": "1999-025EWD", "EPOCH": "2025-11-07T21:44:34.572480", "MEAN_MOTION": 13.69653557, "ECCENTRICITY": 0.02407275, "INCLINATION": 99.7905, "RA_OF_ASC_NODE": 351.2614, "ARG_OF_PERICENTER": 346.3194, "MEAN_ANOMALY": 13.1503, "EPHEMERIS_TYPE": 0, "CLASSIFICATION_TYPE": "U", "NORAD_CAT_ID": 39536, "ELEMENT_SET_NO": 999, "REV_AT_EPOCH": 61287, "BSTAR": 0.0015441724, "MEAN_MOTION_DOT": 1.606e-05, "MEAN_MOTION_DDOT": 0}, "tle": {"line1": "1 39536U 99025EWD 25311.90595570  .00001606  00000+0  15442-2 0  9993", "line2": "2 39536  99.7905 351.2614 0240727 346.3194  13.1503 13.69653557612878"}}, "geometry": {"type": "Point", "coordinates": [26.89143575987657, -46.41944216534974]}}, {"type": "Feature", "properties": {"norad_id": 39537, "name": "FENGYUN 1C DEB", "group": "fengyun-1c-debris", "lat": -74.42901029264895, "lon": 158.01200351927844, "alt_km": 944.4081522422812, "timestamp": "2025-12-02T15:49:07.480567+00:00", "meta": {"OBJECT_NAME": "FENGYUN 1C DEB", "OBJECT_ID": "1999-025EWE", "EPOCH": "2025-11-24T15:36:49.218624", "MEAN_MOTION": 13.84100529, "ECCENTRICITY": 0.01777289, "INCLINATION": 99.1539, "RA_OF_ASC_NODE": 114.8537, "ARG_OF_PERICENTER": 29.7742, "MEAN_ANOMALY": 331.3386, "EPHEMERIS_TYPE": 0, "CLASSIFICATION_TYPE": "U", "NORAD_CAT_ID": 39537, "ELEMENT_SET_NO": 999, "REV_AT_EPOCH": 59006, "BSTAR": 0.0012783634, "MEAN_MOTION_DOT": 1.566e-05, "MEAN_MOTION_DDOT": 0}, "tle": {"line1": "1 39537U 99025EWE 25328.65056966  .00001566  00000+0  12784-2 0  9996", "line2": "2 39537  99.1539 114.8537 0177728  29.7742 331.3386 13.84100529590067"}}, "geometry": {"type": "Point", "coordinates": [158.01200351927844, -74.42901029264895]}}, {"type": "Feature", "properties": {"norad_id": 39541, "name": "FENGYUN 1C DEB", "group": "fengyun-1c-debris", "lat": 44.55580043584114, "lon": -152.39302736298677, "alt_km": 776.6529892473363, "timestamp": "2025-12-02T15:49:07.480577+00:00", "meta": {"OBJECT_NAME": "FENGYUN 1C DEB", "OBJECT_ID": "1999-025EWJ", "EPOCH": "2025-11-26T08:43:14.269440", "MEAN_MOTION": 14.20329557, "ECCENTRICITY": 0.00721468, "INCLINATION": 98.6819, "RA_OF_ASC_NODE": 12.7746, "ARG_OF_PERICENTER": 119.8468, "MEAN_ANOMALY": 240.9905, "EPHEMERIS_TYPE": 0, "CLASSIFICATION_TYPE": "U", "NORAD_CAT_ID": 39541, "ELEMENT_SET_NO": 999, "REV_AT_EPOCH": 58770, "BSTAR": 0.00069059031, "MEAN_MOTION_DOT": 1.475e-05, "MEAN_MOTION_DDOT": 0}, "tle": {"line1": "1 39541U 99025EWJ 25330.36335960  .00001475  00000+0  69059-3 0  9993", "line2": "2 39541  98.6819  12.7746 0072146 119.8468 240.9905 14.20329557587703"}}, "geometry": {"type": "Point", "coordinates": [-152.39302736298677, 44.55580043584114]}}, {"type": "Feature", "properties": {"norad_id": 39543, "name": "FENGYUN 1C DEB", "group": "fengyun-1c-debris", "lat": -33.067408330177976, "lon": 13.045699292642507, "alt_km": 1235.8281565458255, "timestamp": "2025-12-02T15:49:07.480588+00:00", "meta": {"OBJECT_NAME": "FENGYUN 1C DEB", "OBJECT_ID": "1999-025EWL", "EPOCH": "2025-11-30T07:54:32.241312", "MEAN_MOTION": 13.70145332, "ECCENTRICITY": 0.03392499, "INCLINATION": 99.0436, "RA_OF_ASC_NODE": 4.8995, "ARG_OF_PERICENTER": 174.7321, "MEAN_ANOMALY": 185.7545, "EPHEMERIS_TYPE": 0, "CLASSIFICATION_TYPE": "U", "NORAD_CAT_ID": 39543, "ELEMENT_SET_NO": 999, "REV_AT_EPOCH": 49015, "BSTAR": 0.00095388289, "MEAN_MOTION_DOT": 1.221e-05, "MEAN_MOTION_DDOT": 0}, "tle": {"line1": "1 39543U 99025EWL 25334.32953983  .00001221  00000+0  95388-3 0  9999", "line2": "2 39543  99.0436   4.8995 0339249 174.7321 185.7545 13.70145332490150"}}, "geometry": {"type": "Point", "coordinates": [13.045699292642507, -33.067408330177976]}}, {"type": "Feature", "properties": {"norad_id": 39544, "name": "FENGYUN 1C DEB", "group": "fengyun-1c-debris", "lat": 3.4881305134571066, "lon": 36.68972006267817, "alt_km": 907.550048022048, "timestamp": "2025-12-02T15:49:07.480598+00:00", "meta": {"OBJECT_NAME": "FENGYUN 1C DEB", "OBJECT_ID": "1999-025EWM", "EPOCH": "2025-11-19T09:11:56.449536", "MEAN_MOTION": 14.05475202, "ECCENTRICITY": 0.00550402, "INCLINATION": 98.7431, "RA_OF_ASC_NODE": 203.3482, "ARG_OF_PERICENTER": 73.9921, "MEAN_ANOMALY": 286.7301, "EPHEMERIS_TYPE": 0, "CLASSIFICATION_TYPE": "U", "NORAD_CAT_ID": 39544, "ELEMENT_SET_NO": 999, "REV_AT_EPOCH": 56527, "BSTAR": 0.00067356683, "MEAN_MOTION_DOT": 1.067e-05, "MEAN_MOTION_DDOT": 0}, "tle": {"line1": "1 39544U 99025EWM 25323.38329224  .00001067  00000+0  67357-3 0  9992", "line2": "2 39544  98.7431 203.3482 0055040  73.9921 286.7301 14.05475202565278"}}, "geometry": {"type": "Point", "coordinates": [36.68972006267817, 3.4881305134571066]}}, {"type": "Feature", "properties": {"norad_id": 40688, "name": "FENGYUN 1C DEB", "group": "fengyun-1c-debris", "lat": -17.69523684306529, "lon": -56.21862386049578, "alt_km": 1033.7276869844363, "timestamp": "2025-12-02T15:49:07.480609+00:00", "meta": {"OBJECT_NAME": "FENGYUN 1C DEB", "OBJECT_ID": "1999-025EWU", "EPOCH": "2025-11-28T15:26:17.467872", "MEAN_MOTION": 13.83811366, "ECCENTRICITY": 0.01426841, "INCLINATION": 98.9673, "RA_OF_ASC_NODE": 122.8373, "ARG_OF_PERICENTER": 69.4473, "MEAN_ANOMALY": 292.1926, "EPHEMERIS_TYPE": 0, "CLASSIFICATION_TYPE": "U", "NORAD_CAT_ID": 40688, "ELEMENT_SET_NO": 999, "REV_AT_EPOCH": 29722, "BSTAR": 0.00038169517, "MEAN_MOTION_DOT": 4.17e-06, "MEAN_MOTION_DDOT": 0}, "tle": {"line1": "1 40688U 99025EWU 25332.64325773  .00000417  00000+0  38170-3 0  9996", "line2": "2 40688  98.9673 122.8373 0142684  69.4473 292.1926 13.83811366297227"}}, "geometry": {"type": "Point", "coordinates": [-56.21862386049578, -17.69523684306529]}}]}